NORAD_CAT_ID,OBJECT_NAME,OBJECT_TYPE,EPOCH,MEAN_MOTION,ECCENTRICITY,INCLINATION,RA_OF_ASC_NODE,ARG_OF_PERICENTER,MEAN_ANOMALY,BSTAR,MEAN_MOTION_DOT,MEAN_MOTION_DDOT,TLE_LINE0,TLE_LINE1,TLE_LINE2,SEMIMAJOR_AXIS,PERIOD,APOGEE,PERIGEE,DECAYED
53566.0,STARLINK-4576,PAYLOAD,2023-07-26 15:24:10,15.0884951,9.76e-05,53.2179,30.4618,81.5678,278.5425,3.0736e-05,2.02e-06,0.0,0 STARLINK-4576,1 53566U 22101AR  23207.64178827  .00000202  00000-0  30736-4 0  9995,2 53566  53.2179  30.4618 0000976  81.5678 278.5425 15.08849510 51968,6917.851,95.437,540.392,539.041,0.0
53566.0,STARLINK-4576,PAYLOAD,2023-07-26 21:45:42,15.088581,0.0001016,53.2167,29.2725,71.9643,288.1459,9.1714e-05,1.173e-05,0.0,0 STARLINK-4576,1 53566U 22101AR  23207.90674016  .00001173  00000-0  91714-4 0  9996,2 53566  53.2167  29.2725 0001016  71.9643 288.1459 15.08858100 52006,6917.825,95.436,540.393,538.987,0.0
53566.0,STARLINK-4576,PAYLOAD,2023-07-27 05:42:38,15.08850232,0.0001834,53.2139,27.793,51.7933,308.3224,-4.5968e-05,-1.02e-05,0.0,0 STARLINK-4576,1 53566U 22101AR  23208.23794892 -.00001020  00000-0 -45968-4 0  9991,2 53566  53.2139  27.7930 0001834  51.7933 308.3224 15.08850232 52050,6917.849,95.437,540.983,538.445,0.0
53566.0,STARLINK-4576,PAYLOAD,2023-07-27 15:14:58,15.08833876,0.0001024,53.2178,26.0008,84.2405,275.8703,3.2082e-05,2.23e-06,0.0,0 STARLINK-4576,1 53566U 22101AR  23208.63539801  .00000223  00000-0  32082-4 0  9997,2 53566  53.2178  26.0008 0001024  84.2405 275.8703 15.08833876 52119,6917.899,95.438,540.473,539.056,0.0
53566.0,STARLINK-4576,PAYLOAD,2023-07-28 13:30:22,15.08842718,0.0001062,53.218,21.8387,83.4505,276.6608,1.7958e-05,-2e-08,0.0,0 STARLINK-4576,1 53566U 22101AR  23209.56275483 -.00000002  00000-0  17958-4 0  9994,2 53566  53.2180  21.8387 0001062  83.4505 276.6608 15.08842718 52948,6917.872,95.437,540.472,539.002,0.0
53566.0,STARLINK-4576,PAYLOAD,2023-07-29 18:07:18,15.08842179,0.0001104,53.2184,16.4862,90.6908,269.421,0.00017821,2.55e-05,0.0,0 STARLINK-4576,1 53566U 22101AR  23210.75507311  .00002550  00000-0  17821-3 0  9992,2 53566  53.2184  16.4862 0001104  90.6908 269.4210 15.08842179 52438,6917.874,95.437,540.502,538.975,0.0
53566.0,STARLINK-4576,PAYLOAD,2023-07-30 17:58:05,15.08841131,9.85e-05,53.216,12.0261,90.4657,269.6448,2.3237e-05,8.2e-07,0.0,0 STARLINK-4576,1 53566U 22101AR  23211.74867413  .00000082  00000-0  23237-4 0  9991,2 53566  53.2160  12.0261 0000985  90.4657 269.6448 15.08841131 52580,6917.877,95.437,540.423,539.061,0.0
53566.0,STARLINK-4576,PAYLOAD,2023-08-01 19:15:03,15.0884008,0.0001058,53.2177,2.8047,78.3102,281.8009,4.4945e-05,4.28e-06,0.0,0 STARLINK-4576,1 53566U 22101AR  23213.80212339  .00000428  00000-0  44945-4 0  9994,2 53566  53.2177   2.8047 0001058  78.3102 281.8009 15.08840080 52894,6917.88,95.438,540.477,539.013,0.0
53566.0,STARLINK-4576,PAYLOAD,2023-08-02 17:30:26,15.08856788,0.0001068,53.2168,358.6431,75.7211,284.39,0.00039312,5.977e-05,0.0,0 STARLINK-4576,1 53566U 22101AR  23214.72947373  .00005977  00000-0  39312-3 0  9994,2 53566  53.2168 358.6431 0001068  75.7211 284.3900 15.08856788 53033,6917.829,95.436,540.433,538.955,0.0
53566.0,STARLINK-4576,PAYLOAD,2023-08-03 15:45:50,15.08852008,9.37e-05,53.2164,354.4802,85.4703,274.6397,0.00022184,3.246e-05,0.0,0 STARLINK-4576,1 53566U 22101AR  23215.65683398  .00003246  00000-0  22184-3 0  9997,2 53566  53.2164 354.4802 0000937  85.4703 274.6397 15.08852008 53171,6917.844,95.437,540.357,539.06,0.0
53566.0,STARLINK-4576,PAYLOAD,2023-08-04 09:15:05,15.08838154,0.000125,53.2173,351.2075,81.4409,278.6725,-0.00018945,-3.302e-05,0.0,0 STARLINK-4576,1 53566U 22101AR  23216.38547565 -.00003302  00000-0 -18945-3 0  9998,2 53566  53.2173 351.2075 0001250  81.4409 278.6725 15.08838154 53283,6917.886,95.438,540.616,538.886,0.0
53566.0,STARLINK-4576,PAYLOAD,2023-08-04 20:22:46,15.08846944,0.0001163,53.2177,349.1261,85.2956,274.8169,0.0002971,4.445e-05,0.0,0 STARLINK-4576,1 53566U 22101AR  23216.84915379  .00004445  00000-0  29710-3 0  9990,2 53566  53.2177 349.1261 0001163  85.2956 274.8169 15.08846944 53356,6917.859,95.437,540.529,538.92,0.0
53566.0,STARLINK-4576,PAYLOAD,2023-08-05 09:05:52,15.08845117,0.0001204,53.2175,346.7459,100.9785,259.1343,0.00026535,3.938e-05,0.0,0 STARLINK-4576,1 53566U 22101AR  23217.37907657  .00003938  00000-0  26535-3 0  9997,2 53566  53.2175 346.7459 0001204 100.9785 259.1343 15.08845117 53437,6917.865,95.437,540.563,538.897,0.0
53566.0,STARLINK-4576,PAYLOAD,2023-08-05 13:52:01,15.0885639,0.0001181,53.2171,345.8572,91.294,268.8188,0.00082484,0.0001287,0.0,0 STARLINK-4576,1 53566U 22101AR  23217.57779366  .00012870  00000-0  82484-3 0  9993,2 53566  53.2171 345.8572 0001181  91.2940 268.8188 15.08856390 53460,6917.83,95.437,540.512,538.878,0.0
53566.0,STARLINK-4576,PAYLOAD,2023-08-06 00:59:43,15.08819431,0.0001594,53.2174,343.7742,100.526,259.5912,-0.00080382,-0.00013051,0.0,0 STARLINK-4576,1 53566U 22101AR  23218.04148040 -.00013051  00000-0 -80382-3 0  9994,2 53566  53.2174 343.7742 0001594 100.5260 259.5912 15.08819431 53531,6917.943,95.439,540.911,538.706,0.0
53566.0,STARLINK-4576,PAYLOAD,2023-08-06 20:04:22,15.08812921,0.0001105,53.2181,340.2066,107.6298,252.4815,0.00041179,6.267e-05,0.0,0 STARLINK-4576,1 53566U 22101AR  23218.83637548  .00006267  00000-0  41179-3 0  9997,2 53566  53.2181 340.2066 0001105 107.6298 252.4815 15.08812921 53651,6917.963,95.439,540.593,539.064,0.0
53566.0,STARLINK-4576,PAYLOAD,2023-08-07 18:19:47,15.08854892,9.65e-05,53.2169,336.0447,106.8153,253.2945,0.0015597,0.00024632,0.0,0 STARLINK-4576,1 53566U 22101AR  23219.76374078  .00024632  00000-0  15597-2 0  9996,2 53566  53.2169 336.0447 0000965 106.8153 253.2945 15.08854892 53798,6917.835,95.437,540.367,539.032,0.0
53566.0,STARLINK-4576,PAYLOAD,2023-08-08 00:41:19,15.08852733,9.96e-05,53.2178,334.8547,106.6284,253.4818,0.00077928,0.0001214,0.0,0 STARLINK-4576,1 53566U 22101AR  23220.02869896  .00012140  00000-0  77928-3 0  9992,2 53566  53.2178 334.8547 0000996 106.6284 253.4818 15.08852733 53830,6917.841,95.437,540.395,539.017,0.0
53566.0,STARLINK-4576,PAYLOAD,2023-08-08 19:45:55,15.08881528,9.62e-05,53.2167,331.286,103.3705,256.7395,0.0011525,0.00018122,0.0,0 STARLINK-4576,1 53566U 22101AR  23220.82356469  .00018122  00000-0  11525-2 0  9993,2 53566  53.2167 331.2860 0000962 103.3705 256.7395 15.08881528 53955,6917.753,95.435,540.284,538.953,0.0
53566.0,STARLINK-4576,PAYLOAD,2023-08-09 06:53:38,15.08847071,8.01e-05,53.2168,329.2051,83.2155,276.8929,-6.632e-05,-1.343e-05,0.0,0 STARLINK-4576,1 53566U 22101AR  23221.28724803 -.00001343  00000-0 -66320-4 0  9999,2 53566  53.2168 329.2051 0000801  83.2155 276.8929 15.08847071 54022,6917.859,95.437,540.278,539.17,0.0
53566.0,STARLINK-4576,PAYLOAD,2023-08-10 09:55:11,15.08838022,9.97e-05,53.2149,324.1502,75.1781,284.9321,0.00010067,1.315e-05,0.0,0 STARLINK-4576,1 53566U 22101AR  23222.41333112  .00001315  00000-0  10067-3 0  9997,2 53566  53.2149 324.1502 0000997  75.1781 284.9321 15.08838022 54197,6917.886,95.438,540.441,539.062,0.0
53566.0,STARLINK-4576,PAYLOAD,2023-08-10 17:52:07,15.08852456,0.000103,53.2167,322.6626,75.3855,284.7251,0.00039293,5.973e-05,0.0,0 STARLINK-4576,1 53566U 22101AR  23222.74452640  .00005973  00000-0  39293-3 0  9997,2 53566  53.2167 322.6626 0001030  75.3855 284.7251 15.08852456 54243,6917.842,95.437,540.42,538.995,0.0
53566.0,STARLINK-4576,PAYLOAD,2023-08-11 00:13:40,15.08839996,0.000102,53.2168,321.4726,80.2774,279.8334,0.00031139,4.671e-05,0.0,0 STARLINK-4576,1 53566U 22101AR  23223.00949122  .00004671  00000-0  31139-3 0  9998,2 53566  53.2168 321.4726 0001020  80.2774 279.8334 15.08839996 54281,6917.88,95.438,540.451,539.04,0.0
53566.0,STARLINK-4576,PAYLOAD,2023-08-11 16:07:30,15.08855202,0.000103,53.2164,318.4991,81.1294,278.9815,0.0005718,8.828e-05,0.0,0 STARLINK-4576,1 53566U 22101AR  23223.67188589  .00008828  00000-0  57180-3 0  9995,2 53566  53.2164 318.4991 0001030  81.1294 278.9815 15.08855202 54388,6917.834,95.437,540.411,538.986,0.0
53566.0,STARLINK-4576,PAYLOAD,2023-08-12 11:12:08,15.08850452,8.86e-05,53.2166,314.9299,88.86,271.2493,0.00038268,5.81e-05,0.0,0 STARLINK-4576,1 53566U 22101AR  23224.46676581  .00005810  00000-0  38268-3 0  9991,2 53566  53.2166 314.9299 0000886  88.8600 271.2493 15.08850452 54509,6917.848,95.437,540.326,539.101,0.0
53566.0,STARLINK-4576,PAYLOAD,2023-08-13 06:16:46,15.08841777,0.0001029,53.2169,311.363,82.5336,277.5773,0.00053216,8.192e-05,0.0,0 STARLINK-4576,1 53566U 22101AR  23225.26164817  .00008192  00000-0  53216-3 0  9990,2 53566  53.2169 311.3630 0001029  82.5336 277.5773 15.08841777 54622,6917.875,95.437,540.452,539.028,0.0
53566.0,STARLINK-4576,PAYLOAD,2023-08-13 22:10:37,15.08833802,9.29e-05,53.217,308.3878,91.0282,269.0817,0.00015644,2.202e-05,0.0,0 STARLINK-4576,1 53566U 22101AR  23225.92404912  .00002202  00000-0  15644-3 0  9995,2 53566  53.2170 308.3878 0000929  91.0282 269.0817 15.08833802 54723,6917.899,95.438,540.407,539.122,0.0
53566.0,STARLINK-4576,PAYLOAD,2023-08-14 17:15:15,15.08846112,0.0001199,53.2173,304.8184,101.2811,258.8316,0.00026484,3.93e-05,0.0,0 STARLINK-4576,1 53566U 22101AR  23226.71892720  .00003930  00000-0  26484-3 0  9994,2 53566  53.2173 304.8184 0001199 101.2811 258.8316 15.08846112 54840,6917.862,95.437,540.556,538.897,0.0
53566.0,STARLINK-4576,PAYLOAD,2023-08-15 10:44:29,15.08842646,0.0001298,53.218,301.5461,105.8878,254.2257,0.00012826,1.754e-05,0.0,0 STARLINK-4576,1 53566U 22101AR  23227.44756864  .00001754  00000-0  12826-3 0  9990,2 53566  53.2180 301.5461 0001298 105.8878 254.2257 15.08842646 54957,6917.872,95.437,540.635,538.839,0.0
53566.0,STARLINK-4576,PAYLOAD,2023-08-16 16:56:49,15.08847968,0.0001297,53.2159,295.8974,82.6954,277.4186,0.00021243,3.095e-05,0.0,0 STARLINK-4576,1 53566U 22101AR  23228.70612793  .00003095  00000-0  21243-3 0  9995,2 53566  53.2159 295.8974 0001297  82.6954 277.4186 15.08847968 55145,6917.856,95.437,540.618,538.824,0.0
